{
  "type": "FeatureCollection",
  "features": [
    {
      "type": "Feature",
      "properties": {
        "norad_id": 43207,
        "name": "BEIDOU-3 M4 (C22)",
        "group": "beidou",
        "lat": -55.430610823333645,
        "lon": -37.33527853346723,
        "alt_km": 21536.476736650482,
        "timestamp": "2025-12-25T14:48:25.042506+00:00",
        "meta_object_name": "BEIDOU-3 M4 (C22)",
        "meta_object_id": "2018-018A",
        "meta_epoch": "2025-12-24T16:34:51.783168",
        "meta_mean_motion": 1.86231226,
        "meta_eccentricity": 0.0004181,
        "meta_inclination": 56.4953,
        "meta_ra_of_asc_node": 68.9094,
        "meta_arg_of_pericenter": 3.1896,
        "meta_mean_anomaly": 356.8673,
        "meta_ephemeris_type": 0,
        "meta_classification_type": "U",
        "meta_norad_cat_id": 43207,
        "meta_element_set_no": 999,
        "meta_rev_at_epoch": 5349,
        "meta_bstar": 0,
        "meta_mean_motion_dot": -2.4e-07,
        "meta_mean_motion_ddot": 0,
        "tle_line1": "1 43207U 18018A   25358.69087712 -.00000024  00000+0  00000+0 0  9992",
        "tle_line2": "2 43207  56.4953  68.9094 0004181   3.1896 356.8673  1.86231226 53497"
      },
      "geometry": {
        "type": "Point",
        "coordinates": [
          -37.33527853346723,
          -55.430610823333645
        ]
      }
    },
    {
      "type": "Feature",
      "properties": {
        "norad_id": 43208,
        "name": "BEIDOU-3 M3 (C21)",
        "group": "beidou",
        "lat": -29.51703890901651,
        "lon": -89.10142609289578,
        "alt_km": 21534.44209868292,
        "timestamp": "2025-12-25T14:48:25.042516+00:00",
        "meta_object_name": "BEIDOU-3 M3 (C21)",
        "meta_object_id": "2018-018B",
        "meta_epoch": "2025-12-24T05:17:24.775296",
        "meta_mean_motion": 1.86231452,
        "meta_eccentricity": 0.00071097,
        "meta_inclination": 56.4941,
        "meta_ra_of_asc_node": 68.9291,
        "meta_arg_of_pericenter": 313.8135,
        "meta_mean_anomaly": 46.182,
        "meta_ephemeris_type": 0,
        "meta_classification_type": "U",
        "meta_norad_cat_id": 43208,
        "meta_element_set_no": 999,
        "meta_rev_at_epoch": 5348,
        "meta_bstar": 0,
        "meta_mean_motion_dot": -2.4e-07,
        "meta_mean_motion_ddot": 0,
        "tle_line1": "1 43208U 18018B   25358.22042564 -.00000024  00000+0  00000+0 0  9998",
        "tle_line2": "2 43208  56.4941  68.9291 0007109 313.8135  46.1820  1.86231452 53487"
      },
      "geometry": {
        "type": "Point",
        "coordinates": [
          -89.10142609289578,
          -29.51703890901651
        ]
      }
    },
    {
      "type": "Feature",
      "properties": {
        "norad_id": 43245,
        "name": "BEIDOU-3 M9 (C29)",
        "group": "beidou",
        "lat": 50.337237530334036,
        "lon": 5.836639292855675,
        "alt_km": 21525.74282372614,
        "timestamp": "2025-12-25T14:48:25.042526+00:00",
        "meta_object_name": "BEIDOU-3 M9 (C29)",
        "meta_object_id": "2018-029A",
        "meta_epoch": "2025-12-24T23:22:05.655648",
        "meta_mean_motion": 1.86228303,
        "meta_eccentricity": 0.00015566,
        "meta_inclination": 54.3546,
        "meta_ra_of_asc_node": 306.0421,
        "meta_arg_of_pericenter": 290.0356,
        "meta_mean_anomaly": 69.9568,
        "meta_ephemeris_type": 0,
        "meta_classification_type": "U",
        "meta_norad_cat_id": 43245,
        "meta_element_set_no": 999,
        "meta_rev_at_epoch": 5265,
        "meta_bstar": 0,
        "meta_mean_motion_dot": -5.2e-07,
        "meta_mean_motion_ddot": 0,
        "tle_line1": "1 43245U 18029A   25358.97367657 -.00000052  00000+0  00000+0 0  9997",
        "tle_line2": "2 43245  54.3546 306.0421 0001556 290.0356  69.9568  1.86228303 52659"
      },
      "geometry": {
        "type": "Point",
        "coordinates": [
          5.836639292855675,
          50.337237530334036
        ]
      }
    },
    {
      "type": "Feature",
      "properties": {
        "norad_id": 43246,
        "name": "BEIDOU-3 M10 (C30)",
        "group": "beidou",
        "lat": 47.535600904568966,
        "lon": 74.46277542391546,
        "alt_km": 21526.935470990582,
        "timestamp": "2025-12-25T14:48:25.042536+00:00",
        "meta_object_name": "BEIDOU-3 M10 (C30)",
        "meta_object_id": "2018-029B",
        "meta_epoch": "2025-12-23T07:09:06.922656",
        "meta_mean_motion": 1.86229257,
        "meta_eccentricity": 0.00043036,
        "meta_inclination": 54.3535,
        "meta_ra_of_asc_node": 306.127,
        "meta_arg_of_pericenter": 3.3658,
        "meta_mean_anomaly": 356.6419,
        "meta_ephemeris_type": 0,
        "meta_classification_type": "U",
        "meta_norad_cat_id": 43246,
        "meta_element_set_no": 999,
        "meta_rev_at_epoch": 5260,
        "meta_bstar": 0,
        "meta_mean_motion_dot": -5.3e-07,
        "meta_mean_motion_ddot": 0,
        "tle_line1": "1 43246U 18029B   25357.29799679 -.00000053  00000+0  00000+0 0  9996",
        "tle_line2": "2 43246  54.3535 306.1270 0004303   3.3658 356.6419  1.86229257 52609"
      },
      "geometry": {
        "type": "Point",
        "coordinates": [
          74.46277542391546,
          47.535600904568966
        ]
      }
    },
    {
      "type": "Feature",
      "properties": {
        "norad_id": 43539,
        "name": "BEIDOU-2 IGSO-7 (C16)",
        "group": "beidou",
        "lat": -54.44475110797785,
        "lon": 61.615286929175966,
        "alt_km": 35448.49731522252,
        "timestamp": "2025-12-25T14:48:25.042547+00:00",
        "meta_object_name": "BEIDOU-2 IGSO-7 (C16)",
        "meta_object_id": "2018-057A",
        "meta_epoch": "2025-12-23T21:03:51.666912",
        "meta_mean_motion": 1.00254881,
        "meta_eccentricity": 0.00930582,
        "meta_inclination": 55.1784,
        "meta_ra_of_asc_node": 164.5741,
        "meta_arg_of_pericenter": 235.1099,
        "meta_mean_anomaly": 119.1175,
        "meta_ephemeris_type": 0,
        "meta_classification_type": "U",
        "meta_norad_cat_id": 43539,
        "meta_element_set_no": 999,
        "meta_rev_at_epoch": 2736,
        "meta_bstar": 0,
        "meta_mean_motion_dot": -6.1e-07,
        "meta_mean_motion_ddot": 0,
        "tle_line1": "1 43539U 18057A   25357.87768133 -.00000061  00000+0  00000+0 0  9996",
        "tle_line2": "2 43539  55.1784 164.5741 0093058 235.1099 119.1175  1.00254881 27360"
      },
      "geometry": {
        "type": "Point",
        "coordinates": [
          61.615286929175966,
          -54.44475110797785
        ]
      }
    },
    {
      "type": "Feature",
      "properties": {
        "norad_id": 43581,
        "name": "BEIDOU-3 M5 (C23)",
        "group": "beidou",
        "lat": -28.298087140476188,
        "lon": 165.23495370716324,
        "alt_km": 21527.60803892383,
        "timestamp": "2025-12-25T14:48:25.042557+00:00",
        "meta_object_name": "BEIDOU-3 M5 (C23)",
        "meta_object_id": "2018-062A",
        "meta_epoch": "2025-12-24T01:25:43.982112",
        "meta_mean_motion": 1.86228769,
        "meta_eccentricity": 0.0001922,
        "meta_inclination": 54.09,
        "meta_ra_of_asc_node": 188.2582,
        "meta_arg_of_pericenter": 1.0455,
        "meta_mean_anomaly": 358.9913,
        "meta_ephemeris_type": 0,
        "meta_classification_type": "U",
        "meta_norad_cat_id": 43581,
        "meta_element_set_no": 999,
        "meta_rev_at_epoch": 5037,
        "meta_bstar": 0,
        "meta_mean_motion_dot": 1.01e-06,
        "meta_mean_motion_ddot": 0,
        "tle_line1": "1 43581U 18062A   25358.05953683  .00000101  00000+0  00000+0 0  9990",
        "tle_line2": "2 43581  54.0900 188.2582 0001922   1.0455 358.9913  1.86228769 50376"
      },
      "geometry": {
        "type": "Point",
        "coordinates": [
          165.23495370716324,
          -28.298087140476188
        ]
      }
    },
    {
      "type": "Feature",
      "properties": {
        "norad_id": 43582,
        "name": "BEIDOU-3 M6 (C24)",
        "group": "beidou",
        "lat": 42.225137209976204,
        "lon": -130.6629179402094,
        "alt_km": 21501.231909190374,
        "timestamp": "2025-12-25T14:48:25.042568+00:00",
        "meta_object_name": "BEIDOU-3 M6 (C24)",
        "meta_object_id": "2018-062B",
        "meta_epoch": "2025-12-23T22:08:28.739040",
        "meta_mean_motion": 1.86229712,
        "meta_eccentricity": 0.00078704,
        "meta_inclination": 54.0895,
        "meta_ra_of_asc_node": 188.252,
        "meta_arg_of_pericenter": 49.2706,
        "meta_mean_anomaly": 310.8346,
        "meta_ephemeris_type": 0,
        "meta_classification_type": "U",
        "meta_norad_cat_id": 43582,
        "meta_element_set_no": 999,
        "meta_rev_at_epoch": 5037,
        "meta_bstar": 0,
        "meta_mean_motion_dot": 1e-06,
        "meta_mean_motion_ddot": 0,
        "tle_line1": "1 43582U 18062B   25357.92255485  .00000100  00000+0  00000+0 0  9990",
        "tle_line2": "2 43582  54.0895 188.2520 0007870  49.2706 310.8346  1.86229712 50379"
      },
      "geometry": {
        "type": "Point",
        "coordinates": [
          -130.6629179402094,
          42.225137209976204
        ]
      }
    }
  ]
}